ONEWEB-0012             
1 44057U 19010A   26171.21705693  .00000015  00000+0  63683-5 0  9997
2 44057  87.9094 228.1838 0001886  85.5662 274.5684 13.16594542351966
ONEWEB-0010             
1 44058U 19010B   26170.71040944  .00000004  00000+0 -23469-4 0  9999
2 44058  87.9098 228.2800 0001881 106.6219 253.5119 13.16594797351949
ONEWEB-0008             
1 44059U 19010C   26171.19171631  .00000024  00000+0  29664-4 0  9995
2 44059  87.9091 228.1799 0002347  96.6168 263.5231 13.16595844352129
ONEWEB-0007             
1 44060U 19010D   26171.22922569  .00000168  00000+0  41283-3 0  9994
2 44060  87.9001 258.6151 0001642 100.2400 259.8915 13.15548113351773
ONEWEB-0006             
1 44061U 19010E   26171.30923048  .00000156  00000+0  37920-3 0  9997
2 44061  87.9013 258.5637 0001870 103.7872 256.3466 13.15549110351837
ONEWEB-0011             
1 44062U 19010F   26171.27754266 -.00000081  00000+0 -25011-3 0  9995
2 44062  87.9013 258.5797 0002138 104.6525 255.4843 13.15547705351824
ONEWEB-0013             
1 45131U 20008A   26171.22647193 -.00000571  00000+0 -16946-2 0  9997
2 45131  87.8513  52.2122 0002115  53.0515 307.0805 13.09454671306462
ONEWEB-0017             
1 45132U 20008B   26170.67224421 -.00004392  00000+0 -12622-1 0  9992
2 45132  87.8833  35.7740 0001588  84.5759 275.5549 13.10390406308274
ONEWEB-0020             
1 45133U 20008C   26171.17655667  .00000900  00000+0  25385-2 0  9999
2 45133  87.8829  35.6716 0001778  83.7636 276.3694 13.10483861308737
ONEWEB-0021             
1 45134U 20008D   26171.03894657 -.00000061  00000+0 -20959-3 0  9992
2 45134  87.8825  35.7152 0001686  81.6140 278.5179 13.10426080309029
ONEWEB-0023             
1 45136U 20008F   26170.66804974 -.00000190  00000+0 -58012-3 0  9999
2 45136  87.8838  35.7713 0001901  79.2979 280.8363 13.10388633308404
ONEWEB-0024             
1 45137U 20008G   26171.17497879 -.00000230  00000+0 -69505-3 0  9993
2 45137  87.8837  35.6627 0001754  84.2439 275.8889 13.10495348308634
ONEWEB-0025             
1 45138U 20008H   26171.17470820 -.00000127  00000+0 -40026-3 0  9993
2 45138  87.8839  35.6527 0002222  90.0583 270.0799 13.10491542308967
ONEWEB-0026             
1 45139U 20008J   26171.28672140 -.00000121  00000+0 -37856-3 0  9996
2 45139  87.8880  20.4512 0001820  91.0967 269.0369 13.11414319311514
ONEWEB-0028             
1 45140U 20008K   26171.03325350  .00000594  00000+0  16393-2 0  9993
2 45140  87.8880  20.5096 0001865  69.7868 290.3460 13.11415808308996
ONEWEB-0032             
1 45141U 20008L   26170.67404926 -.00000774  00000+0 -22531-2 0  9993
2 45141  87.8835  35.7751 0002025  68.7420 291.3923 13.10366222308624
ONEWEB-0033             
1 45142U 20008M   26171.18323200 -.00000487  00000+0 -14288-2 0  9997
2 45142  87.8827  35.6805 0001669 100.3813 259.7503 13.10460736308602
ONEWEB-0035             
1 45143U 20008N   26171.05081847  .00001090  00000+0  30864-2 0  9999
2 45143  87.8830  35.7002 0001871  85.5288 274.6053 13.10387192308310
ONEWEB-0036             
1 45144U 20008P   26171.17957034 -.00000459  00000+0 -13588-2 0  9997
2 45144  87.8842  35.6870 0001916  78.2393 281.8949 13.09979558308755
ONEWEB-0038             
1 45145U 20008Q   26170.61035790 -.00000606  00000+0 -17465-2 0  9994
2 45145  87.8899  20.5944 0000190  41.6108 318.5034 13.11416378310647
ONEWEB-0039             
1 45146U 20008R   26171.18662836  .00001138  00000+0  32204-2 0  9992
2 45146  87.8833  35.6692 0001824  66.2552 293.8767 13.10451852308554
ONEWEB-0040             
1 45147U 20008S   26171.02720088 -.00000419  00000+0 -12340-2 0  9992
2 45147  87.8832  35.7136 0002196  88.1238 272.0141 13.10475820308236
ONEWEB-0043             
1 45149U 20008U   26171.02885388 -.00000483  00000+0 -14171-2 0  9994
2 45149  87.8833  35.7002 0001916  65.1887 294.9440 13.10467039308558
ONEWEB-0044             
1 45150U 20008V   26170.67558539 -.00000867  00000+0 -25194-2 0  9994
2 45150  87.8845  35.7716 0001856  77.7794 282.3541 13.10360344308806
ONEWEB-0045             
1 45151U 20008W   26170.98662139 -.00000423  00000+0 -12286-2 0  9997
2 45151  87.8894  20.5024 0001751  82.6796 277.4531 13.11414629310776
ONEWEB-0047             
1 45152U 20008X   26171.05053222 -.00000309  00000+0 -92220-3 0  9994
2 45152  87.8840  35.6964 0001603  87.2752 272.8559 13.10385066308572
ONEWEB-0048             
1 45153U 20008Y   26170.66388368 -.00000069  00000+0 -23369-3 0  9994
2 45153  87.8828  35.7947 0001721  83.8728 276.2595 13.10398643308132
ONEWEB-0049             
1 45154U 20008Z   26171.04885773 -.00000305  00000+0 -90866-3 0  9999
2 45154  87.8830  35.7071 0002213  80.1863 279.9514 13.10391814308405
ONEWEB-0051             
1 45155U 20008AA  26170.60344564 -.00000362  00000+0 -10574-2 0  9999
2 45155  87.8886  20.5861 0001837  85.8742 274.2596 13.11416951311408
ONEWEB-0052             
1 45156U 20008AB  26170.68747119  .00000638  00000+0  17919-2 0  9995
2 45156  87.8835  35.7647 0002236  80.7275 279.4105 13.10303757308263
