OBJECT_NAME,OBJECT_ID,EPOCH,MEAN_MOTION,ECCENTRICITY,INCLINATION,RA_OF_ASC_NODE,ARG_OF_PERICENTER,MEAN_ANOMALY,EPHEMERIS_TYPE,CLASSIFICATION_TYPE,NORAD_CAT_ID,ELEMENT_SET_NO,REV_AT_EPOCH,BSTAR,MEAN_MOTION_DOT,MEAN_MOTION_DDOT
ONEWEB-0012,2019-010A,2026-06-20T05:12:33.718752,13.16594542,.00018868,87.9094,228.1838,85.5662,274.5684,0,U,44057,999,35196,.6368337E-5,.15E-6,0
ONEWEB-0010,2019-010B,2026-06-19T17:02:59.375616,13.16594797,.00018815,87.9098,228.2800,106.6219,253.5119,0,U,44058,999,35194,-.23468582E-4,.4E-7,0
ONEWEB-0008,2019-010C,2026-06-20T04:36:04.289184,13.16595844,.00023472,87.9091,228.1799,96.6168,263.5231,0,U,44059,999,35212,.29663855E-4,.24E-6,0
ONEWEB-0007,2019-010D,2026-06-20T05:30:05.099616,13.15548113,.00016421,87.9001,258.6151,100.2400,259.8915,0,U,44060,999,35177,.41283491E-3,.168E-5,0
ONEWEB-0006,2019-010E,2026-06-20T07:25:17.513472,13.15549110,.00018708,87.9013,258.5637,103.7872,256.3466,0,U,44061,999,35183,.37920173E-3,.156E-5,0
ONEWEB-0011,2019-010F,2026-06-20T06:39:39.685824,13.15547705,.00021384,87.9013,258.5797,104.6525,255.4843,0,U,44062,999,35182,-.25010573E-3,-.81E-6,0
ONEWEB-0013,2020-008A,2026-06-20T05:26:07.174752,13.09454671,.00021151,87.8513,52.2122,53.0515,307.0805,0,U,45131,999,30646,-.16946147E-2,-.571E-5,0
ONEWEB-0017,2020-008B,2026-06-19T16:08:01.899744,13.10390406,.0001588,87.8833,35.7740,84.5759,275.5549,0,U,45132,999,30827,-.12621575E-1,-.4392E-4,0
ONEWEB-0020,2020-008C,2026-06-20T04:14:14.496288,13.10483861,.00017788,87.8829,35.6716,83.7636,276.3694,0,U,45133,999,30873,.25385188E-2,.9E-5,0
ONEWEB-0021,2020-008D,2026-06-20T00:56:04.983648,13.10426080,.00016864,87.8825,35.7152,81.6140,278.5179,0,U,45134,999,30902,-.20958989E-3,-.61E-6,0
ONEWEB-0023,2020-008F,2026-06-19T16:01:59.497536,13.10388633,.00019016,87.8838,35.7713,79.2979,280.8363,0,U,45136,999,30840,-.5801163E-3,-.19E-5,0
ONEWEB-0024,2020-008G,2026-06-20T04:11:58.167456,13.10495348,.00017547,87.8837,35.6627,84.2439,275.8889,0,U,45137,999,30863,-.69504681E-3,-.23E-5,0
ONEWEB-0025,2020-008H,2026-06-20T04:11:34.788480,13.10491542,.0002222,87.8839,35.6527,90.0583,270.0799,0,U,45138,999,30896,-.40025732E-3,-.127E-5,0
ONEWEB-0026,2020-008J,2026-06-20T06:52:52.728960,13.11414319,.00018201,87.8880,20.4512,91.0967,269.0369,0,U,45139,999,31151,-.37856118E-3,-.121E-5,0
ONEWEB-0028,2020-008K,2026-06-20T00:47:53.102400,13.11415808,.00018655,87.8880,20.5096,69.7868,290.3460,0,U,45140,999,30899,.16393257E-2,.594E-5,0
ONEWEB-0032,2020-008L,2026-06-19T16:10:37.856064,13.10366222,.00020252,87.8835,35.7751,68.7420,291.3923,0,U,45141,999,30862,-.22531216E-2,-.774E-5,0
ONEWEB-0033,2020-008M,2026-06-20T04:23:51.244800,13.10460736,.00016698,87.8827,35.6805,100.3813,259.7503,0,U,45142,999,30860,-.14288277E-2,-.487E-5,0
ONEWEB-0035,2020-008N,2026-06-20T01:13:10.715808,13.10387192,.00018715,87.8830,35.7002,85.5288,274.6053,0,U,45143,999,30831,.30863669E-2,.109E-4,0
ONEWEB-0036,2020-008P,2026-06-20T04:18:34.877376,13.09979558,.0001916,87.8842,35.6870,78.2393,281.8949,0,U,45144,999,30875,-.13587536E-2,-.459E-5,0
ONEWEB-0038,2020-008Q,2026-06-19T14:38:54.922560,13.11416378,.00001901,87.8899,20.5944,41.6108,318.5034,0,U,45145,999,31064,-.17464839E-2,-.606E-5,0
ONEWEB-0039,2020-008R,2026-06-20T04:28:44.690304,13.10451852,.00018243,87.8833,35.6692,66.2552,293.8767,0,U,45146,999,30855,.32204353E-2,.1138E-4,0
ONEWEB-0040,2020-008S,2026-06-20T00:39:10.156032,13.10475820,.00021967,87.8832,35.7136,88.1238,272.0141,0,U,45147,999,30823,-.12339591E-2,-.419E-5,0
ONEWEB-0043,2020-008U,2026-06-20T00:41:32.975232,13.10467039,.0001916,87.8833,35.7002,65.1887,294.9440,0,U,45149,999,30855,-.14171086E-2,-.483E-5,0
ONEWEB-0044,2020-008V,2026-06-19T16:12:50.577696,13.10360344,.00018563,87.8845,35.7716,77.7794,282.3541,0,U,45150,999,30880,-.25193562E-2,-.867E-5,0
ONEWEB-0045,2020-008W,2026-06-19T23:40:44.088096,13.11414629,.00017513,87.8894,20.5024,82.6796,277.4531,0,U,45151,999,31077,-.12285674E-2,-.423E-5,0
ONEWEB-0047,2020-008X,2026-06-20T01:12:45.983808,13.10385066,.00016033,87.8840,35.6964,87.2752,272.8559,0,U,45152,999,30857,-.92220236E-3,-.309E-5,0
ONEWEB-0048,2020-008Y,2026-06-19T15:55:59.549952,13.10398643,.00017216,87.8828,35.7947,83.8728,276.2595,0,U,45153,999,30813,-.23368624E-3,-.69E-6,0
ONEWEB-0049,2020-008Z,2026-06-20T01:10:21.307872,13.10391814,.0002213,87.8830,35.7071,80.1863,279.9514,0,U,45154,999,30840,-.9086638E-3,-.305E-5,0
ONEWEB-0051,2020-008AA,2026-06-19T14:28:57.703296,13.11416951,.0001837,87.8886,20.5861,85.8742,274.2596,0,U,45155,999,31140,-.10574419E-2,-.362E-5,0
ONEWEB-0052,2020-008AB,2026-06-19T16:29:57.510816,13.10303757,.00022362,87.8835,35.7647,80.7275,279.4105,0,U,45156,999,30826,.17919409E-2,.638E-5,0
